[{"OBJECT_NAME":"KUIPER-00129","OBJECT_ID":"2025-228M","EPOCH":"2026-03-07T04:14:03.937344","MEAN_MOTION":14.79927661,"ECCENTRICITY":8.263e-5,"INCLINATION":51.9026,"RA_OF_ASC_NODE":359.2179,"ARG_OF_PERICENTER":84.4278,"MEAN_ANOMALY":275.6778,"EPHEMERIS_TYPE":0,"CLASSIFICATION_TYPE":"U","NORAD_CAT_ID":65958,"ELEMENT_SET_NO":999,"REV_AT_EPOCH":2303,"BSTAR":-0.00010348806,"MEAN_MOTION_DOT":-1.01e-5,"MEAN_MOTION_DDOT":0},{"OBJECT_NAME":"KUIPER-00130","OBJECT_ID":"2025-228N","EPOCH":"2026-03-07T04:58:52.753728","MEAN_MOTION":14.80042926,"ECCENTRICITY":0.00012722,"INCLINATION":51.9041,"RA_OF_ASC_NODE":1.5856,"ARG_OF_PERICENTER":95.9525,"MEAN_ANOMALY":264.1582,"EPHEMERIS_TYPE":0,"CLASSIFICATION_TYPE":"U","NORAD_CAT_ID":65959,"ELEMENT_SET_NO":999,"REV_AT_EPOCH":1329,"BSTAR":0.0010128026,"MEAN_MOTION_DOT":7.528e-5,"MEAN_MOTION_DDOT":0},{"OBJECT_NAME":"KUIPER-00134","OBJECT_ID":"2025-228P","EPOCH":"2026-03-07T02:50:09.222720","MEAN_MOTION":15.38507446,"ECCENTRICITY":0.00050973,"INCLINATION":51.876,"RA_OF_ASC_NODE":332.8393,"ARG_OF_PERICENTER":316.9087,"MEAN_ANOMALY":43.1501,"EPHEMERIS_TYPE":0,"CLASSIFICATION_TYPE":"U","NORAD_CAT_ID":65960,"ELEMENT_SET_NO":999,"REV_AT_EPOCH":2339,"BSTAR":0.0011141179,"MEAN_MOTION_DOT":0.00042871,"MEAN_MOTION_DDOT":0},{"OBJECT_NAME":"KUIPER-00135","OBJECT_ID":"2025-228Q","EPOCH":"2026-03-07T02:32:55.913280","MEAN_MOTION":14.79958399,"ECCENTRICITY":0.00010585,"INCLINATION":51.9038,"RA_OF_ASC_NODE":2.0957,"ARG_OF_PERICENTER":88.306,"MEAN_ANOMALY":271.8023,"EPHEMERIS_TYPE":0,"CLASSIFICATION_TYPE":"U","NORAD_CAT_ID":65961,"ELEMENT_SET_NO":999,"REV_AT_EPOCH":2298,"BSTAR":0.00085019169,"MEAN_MOTION_DOT":6.27e-5,"MEAN_MOTION_DDOT":0},{"OBJECT_NAME":"KUIPER-00136","OBJECT_ID":"2025-228R","EPOCH":"2026-03-07T05:02:37.953600","MEAN_MOTION":14.79910012,"ECCENTRICITY":0.00014753,"INCLINATION":51.9018,"RA_OF_ASC_NODE":359.1093,"ARG_OF_PERICENTER":103.4531,"MEAN_ANOMALY":256.6596,"EPHEMERIS_TYPE":0,"CLASSIFICATION_TYPE":"U","NORAD_CAT_ID":65962,"ELEMENT_SET_NO":999,"REV_AT_EPOCH":2303,"BSTAR":0.0010768174,"MEAN_MOTION_DOT":7.993e-5,"MEAN_MOTION_DDOT":0},{"OBJECT_NAME":"KUIPER-00137","OBJECT_ID":"2025-228S","EPOCH":"2026-03-07T06:00:00.999648","MEAN_MOTION":14.80711181,"ECCENTRICITY":9.152e-5,"INCLINATION":51.9035,"RA_OF_ASC_NODE":356.3545,"ARG_OF_PERICENTER":160.1333,"MEAN_ANOMALY":59.4137,"EPHEMERIS_TYPE":0,"CLASSIFICATION_TYPE":"U","NORAD_CAT_ID":65963,"ELEMENT_SET_NO":999,"REV_AT_EPOCH":434,"BSTAR":0.0046668034,"MEAN_MOTION_DOT":0.00036216,"MEAN_MOTION_DDOT":0},{"OBJECT_NAME":"KUIPER-00138","OBJECT_ID":"2025-228T","EPOCH":"2026-03-07T01:07:17.712192","MEAN_MOTION":14.79929294,"ECCENTRICITY":8.844e-5,"INCLINATION":51.9013,"RA_OF_ASC_NODE":354.7806,"ARG_OF_PERICENTER":96.7786,"MEAN_ANOMALY":263.3277,"EPHEMERIS_TYPE":0,"CLASSIFICATION_TYPE":"U","NORAD_CAT_ID":65964,"ELEMENT_SET_NO":999,"REV_AT_EPOCH":2308,"BSTAR":0.00080460342,"MEAN_MOTION_DOT":5.917e-5,"MEAN_MOTION_DDOT":0},{"OBJECT_NAME":"KUIPER-00140","OBJECT_ID":"2025-228U","EPOCH":"2026-03-07T04:17:57.816960","MEAN_MOTION":14.79913505,"ECCENTRICITY":9.809e-5,"INCLINATION":51.9025,"RA_OF_ASC_NODE":356.7764,"ARG_OF_PERICENTER":89.9489,"MEAN_ANOMALY":270.1585,"EPHEMERIS_TYPE":0,"CLASSIFICATION_TYPE":"U","NORAD_CAT_ID":65965,"ELEMENT_SET_NO":999,"REV_AT_EPOCH":2306,"BSTAR":0.0011873893,"MEAN_MOTION_DOT":8.838e-5,"MEAN_MOTION_DDOT":0},{"OBJECT_NAME":"KUIPER-00141","OBJECT_ID":"2025-228V","EPOCH":"2026-03-07T04:25:37.904736","MEAN_MOTION":14.80025991,"ECCENTRICITY":6.823e-5,"INCLINATION":51.9043,"RA_OF_ASC_NODE":351.764,"ARG_OF_PERICENTER":57.8214,"MEAN_ANOMALY":302.2814,"EPHEMERIS_TYPE":0,"CLASSIFICATION_TYPE":"U","NORAD_CAT_ID":65966,"ELEMENT_SET_NO":999,"REV_AT_EPOCH":2313,"BSTAR":0.00077790491,"MEAN_MOTION_DOT":5.727e-5,"MEAN_MOTION_DDOT":0},{"OBJECT_NAME":"KUIPER-00146","OBJECT_ID":"2025-228W","EPOCH":"2026-03-07T04:36:21.274560","MEAN_MOTION":14.76479587,"ECCENTRICITY":0.00010906,"INCLINATION":51.9036,"RA_OF_ASC_NODE":353.9973,"ARG_OF_PERICENTER":105.9889,"MEAN_ANOMALY":254.1192,"EPHEMERIS_TYPE":0,"CLASSIFICATION_TYPE":"U","NORAD_CAT_ID":65967,"ELEMENT_SET_NO":999,"REV_AT_EPOCH":2310,"BSTAR":0.00070435502,"MEAN_MOTION_DOT":4.738e-5,"MEAN_MOTION_DDOT":0},{"OBJECT_NAME":"KUIPER-00149","OBJECT_ID":"2025-228X","EPOCH":"2026-03-06T23:37:45.903648","MEAN_MOTION":14.7997728,"ECCENTRICITY":0.00016743,"INCLINATION":51.9036,"RA_OF_ASC_NODE":350.066,"ARG_OF_PERICENTER":66.4788,"MEAN_ANOMALY":293.635,"EPHEMERIS_TYPE":0,"CLASSIFICATION_TYPE":"U","NORAD_CAT_ID":65968,"ELEMENT_SET_NO":999,"REV_AT_EPOCH":2314,"BSTAR":-0.001118216,"MEAN_MOTION_DOT":-8.744e-5,"MEAN_MOTION_DDOT":0},{"OBJECT_NAME":"KUIPER-00154","OBJECT_ID":"2025-228Y","EPOCH":"2026-03-07T03:44:46.352256","MEAN_MOTION":14.79943255,"ECCENTRICITY":7.62e-5,"INCLINATION":51.9013,"RA_OF_ASC_NODE":346.8109,"ARG_OF_PERICENTER":102.9305,"MEAN_ANOMALY":257.1743,"EPHEMERIS_TYPE":0,"CLASSIFICATION_TYPE":"U","NORAD_CAT_ID":65969,"ELEMENT_SET_NO":999,"REV_AT_EPOCH":2320,"BSTAR":0.00056845011,"MEAN_MOTION_DOT":4.116e-5,"MEAN_MOTION_DDOT":0},{"OBJECT_NAME":"KUIPER-00157","OBJECT_ID":"2025-228Z","EPOCH":"2026-03-07T03:40:56.669088","MEAN_MOTION":14.7989043,"ECCENTRICITY":0.00010019,"INCLINATION":51.9032,"RA_OF_ASC_NODE":349.4329,"ARG_OF_PERICENTER":60.506,"MEAN_ANOMALY":299.6002,"EPHEMERIS_TYPE":0,"CLASSIFICATION_TYPE":"U","NORAD_CAT_ID":65970,"ELEMENT_SET_NO":999,"REV_AT_EPOCH":2316,"BSTAR":-0.00055870556,"MEAN_MOTION_DOT":-4.473e-5,"MEAN_MOTION_DDOT":0},{"OBJECT_NAME":"KUIPER-00144","OBJECT_ID":"2025-301A","EPOCH":"2026-03-07T07:33:23.102208","MEAN_MOTION":15.38235194,"ECCENTRICITY":0.00077029,"INCLINATION":51.8683,"RA_OF_ASC_NODE":76.5596,"ARG_OF_PERICENTER":24.8599,"MEAN_ANOMALY":335.2758,"EPHEMERIS_TYPE":0,"CLASSIFICATION_TYPE":"U","NORAD_CAT_ID":67133,"ELEMENT_SET_NO":999,"REV_AT_EPOCH":1337,"BSTAR":0.0014203641,"MEAN_MOTION_DOT":0.00054389,"MEAN_MOTION_DDOT":0},{"OBJECT_NAME":"KUIPER-00164","OBJECT_ID":"2025-301B","EPOCH":"2026-03-07T06:00:00.999648","MEAN_MOTION":15.13912534,"ECCENTRICITY":0.00053791,"INCLINATION":51.8797,"RA_OF_ASC_NODE":78.6299,"ARG_OF_PERICENTER":68.584,"MEAN_ANOMALY":103.2886,"EPHEMERIS_TYPE":0,"CLASSIFICATION_TYPE":"U","NORAD_CAT_ID":67134,"ELEMENT_SET_NO":999,"REV_AT_EPOCH":587,"BSTAR":-0.10114887,"MEAN_MOTION_DOT":-0.01700023,"MEAN_MOTION_DDOT":0},{"OBJECT_NAME":"KUIPER-00175","OBJECT_ID":"2025-301C","EPOCH":"2026-03-07T07:16:36.828192","MEAN_MOTION":15.30874565,"ECCENTRICITY":0.00021641,"INCLINATION":51.8788,"RA_OF_ASC_NODE":76.5139,"ARG_OF_PERICENTER":40.0735,"MEAN_ANOMALY":320.0408,"EPHEMERIS_TYPE":0,"CLASSIFICATION_TYPE":"U","NORAD_CAT_ID":67135,"ELEMENT_SET_NO":999,"REV_AT_EPOCH":1344,"BSTAR":0.0011865416,"MEAN_MOTION_DOT":0.00035728,"MEAN_MOTION_DDOT":0},{"OBJECT_NAME":"KUIPER-00179","OBJECT_ID":"2025-301D","EPOCH":"2026-03-07T06:00:00.999648","MEAN_MOTION":15.1012278,"ECCENTRICITY":0.00022879,"INCLINATION":51.8844,"RA_OF_ASC_NODE":78.1203,"ARG_OF_PERICENTER":62.2592,"MEAN_ANOMALY":68.3341,"EPHEMERIS_TYPE":0,"CLASSIFICATION_TYPE":"U","NORAD_CAT_ID":67136,"ELEMENT_SET_NO":999,"REV_AT_EPOCH":592,"BSTAR":-0.079399567,"MEAN_MOTION_DOT":-0.01201403,"MEAN_MOTION_DDOT":0},{"OBJECT_NAME":"KUIPER-00181","OBJECT_ID":"2025-301E","EPOCH":"2026-03-07T06:44:04.820640","MEAN_MOTION":14.76414723,"ECCENTRICITY":0.0001932,"INCLINATION":51.9024,"RA_OF_ASC_NODE":87.6928,"ARG_OF_PERICENTER":93.5841,"MEAN_ANOMALY":266.5341,"EPHEMERIS_TYPE":0,"CLASSIFICATION_TYPE":"U","NORAD_CAT_ID":67137,"ELEMENT_SET_NO":999,"REV_AT_EPOCH":1337,"BSTAR":0.0006062347,"MEAN_MOTION_DOT":4.041e-5,"MEAN_MOTION_DDOT":0},{"OBJECT_NAME":"KUIPER-00183","OBJECT_ID":"2025-301F","EPOCH":"2026-03-07T06:00:00.999648","MEAN_MOTION":15.28547808,"ECCENTRICITY":0.00154172,"INCLINATION":51.8669,"RA_OF_ASC_NODE":77.7639,"ARG_OF_PERICENTER":45.3852,"MEAN_ANOMALY":190.3756,"EPHEMERIS_TYPE":0,"CLASSIFICATION_TYPE":"U","NORAD_CAT_ID":67138,"ELEMENT_SET_NO":999,"REV_AT_EPOCH":580,"BSTAR":0.00035729752,"MEAN_MOTION_DOT":9.752e-5,"MEAN_MOTION_DDOT":0},{"OBJECT_NAME":"KUIPER-00184","OBJECT_ID":"2025-301G","EPOCH":"2026-03-07T06:00:00.999648","MEAN_MOTION":15.33779009,"ECCENTRICITY":0.00123093,"INCLINATION":51.8638,"RA_OF_ASC_NODE":77.4109,"ARG_OF_PERICENTER":45.4489,"MEAN_ANOMALY":18.157,"EPHEMERIS_TYPE":0,"CLASSIFICATION_TYPE":"U","NORAD_CAT_ID":67139,"ELEMENT_SET_NO":999,"REV_AT_EPOCH":574,"BSTAR":-0.02071339,"MEAN_MOTION_DOT":-0.00642165,"MEAN_MOTION_DDOT":0},{"OBJECT_NAME":"KUIPER-00186","OBJECT_ID":"2025-301H","EPOCH":"2026-03-07T06:45:59.056128","MEAN_MOTION":14.79995417,"ECCENTRICITY":8.172e-5,"INCLINATION":51.9013,"RA_OF_ASC_NODE":88.7578,"ARG_OF_PERICENTER":114.3948,"MEAN_ANOMALY":245.71,"EPHEMERIS_TYPE":0,"CLASSIFICATION_TYPE":"U","NORAD_CAT_ID":67140,"ELEMENT_SET_NO":999,"REV_AT_EPOCH":1320,"BSTAR":0.00070835244,"MEAN_MOTION_DOT":5.191e-5,"MEAN_MOTION_DDOT":0},{"OBJECT_NAME":"KUIPER-00187","OBJECT_ID":"2025-301J","EPOCH":"2026-03-07T06:42:03.105504","MEAN_MOTION":14.79940849,"ECCENTRICITY":8.117e-5,"INCLINATION":51.9019,"RA_OF_ASC_NODE":91.2813,"ARG_OF_PERICENTER":107.0826,"MEAN_ANOMALY":253.0225,"EPHEMERIS_TYPE":0,"CLASSIFICATION_TYPE":"U","NORAD_CAT_ID":67141,"ELEMENT_SET_NO":999,"REV_AT_EPOCH":1316,"BSTAR":0.00074700217,"MEAN_MOTION_DOT":5.479e-5,"MEAN_MOTION_DDOT":0},{"OBJECT_NAME":"KUIPER-00188","OBJECT_ID":"2025-301K","EPOCH":"2026-03-07T06:33:07.991424","MEAN_MOTION":15.37872423,"ECCENTRICITY":0.00101294,"INCLINATION":51.8689,"RA_OF_ASC_NODE":77.0198,"ARG_OF_PERICENTER":37.8888,"MEAN_ANOMALY":322.281,"EPHEMERIS_TYPE":0,"CLASSIFICATION_TYPE":"U","NORAD_CAT_ID":67142,"ELEMENT_SET_NO":999,"REV_AT_EPOCH":1336,"BSTAR":0.0015509275,"MEAN_MOTION_DOT":0.00058798,"MEAN_MOTION_DDOT":0}]
